{
  "links" : {
    "next" : "https://api.nasa.gov/neo/rest/v1/feed?start_date=1995-06-09&end_date=1995-06-09&detailed=true&api_key=t0TVs3DtDT2H8Oy2Zy8m2eVrNsAVKAexjcZXUckd",
    "prev" : "https://api.nasa.gov/neo/rest/v1/feed?start_date=1995-06-07&end_date=1995-06-07&detailed=true&api_key=t0TVs3DtDT2H8Oy2Zy8m2eVrNsAVKAexjcZXUckd",
    "self" : "https://api.nasa.gov/neo/rest/v1/feed?start_date=1995-06-08&end_date=1995-06-08&detailed=true&api_key=t0TVs3DtDT2H8Oy2Zy8m2eVrNsAVKAexjcZXUckd"
  },
  "element_count" : 6,
  "near_earth_objects" : {
    "1995-06-08" : [ {
      "links" : {
        "self" : "https://api.nasa.gov/neo/rest/v1/neo/3463371?api_key=t0TVs3DtDT2H8Oy2Zy8m2eVrNsAVKAexjcZXUckd"
      },
      "neo_reference_id" : "3463371",
      "name" : "(2009 MW)",
      "nasa_jpl_url" : "http://ssd.jpl.nasa.gov/sbdb.cgi?sstr=3463371",
      "absolute_magnitude_h" : 20.8,
      "estimated_diameter" : {
        "kilometers" : {
          "estimated_diameter_min" : 0.1838886721,
          "estimated_diameter_max" : 0.411187571
        },
        "meters" : {
          "estimated_diameter_min" : 183.8886720703,
          "estimated_diameter_max" : 411.1875710413
        },
        "miles" : {
          "estimated_diameter_min" : 0.1142630881,
          "estimated_diameter_max" : 0.2555000322
        },
        "feet" : {
          "estimated_diameter_min" : 603.309310875,
          "estimated_diameter_max" : 1349.040630575
        }
      },
      "is_potentially_hazardous_asteroid" : false,
      "close_approach_data" : [ {
        "close_approach_date" : "1995-06-08",
        "epoch_date_close_approach" : 802594800000,
        "relative_velocity" : {
          "kilometers_per_second" : "19.6672789686",
          "kilometers_per_hour" : "70802.2042868531",
          "miles_per_hour" : "43993.7363247949"
        },
        "miss_distance" : {
          "astronomical" : "0.3665254682",
          "lunar" : "142.578414917",
          "kilometers" : "54831432",
          "miles" : "34070672"
        },
        "orbiting_body" : "Earth"
      } ],
      "orbital_data" : {
        "orbit_id" : "19",
        "orbit_determination_date" : "2017-04-06 09:00:25",
        "orbit_uncertainty" : "1",
        "minimum_orbit_intersection" : ".113249",
        "jupiter_tisserand_invariant" : "6.447",
        "epoch_osculation" : "2458000.5",
        "eccentricity" : ".2991539178730141",
        "semi_major_axis" : ".9127170167367619",
        "inclination" : "21.03334897898406",
        "ascending_node_longitude" : "87.57392832159935",
        "orbital_period" : "318.4950216186122",
        "perihelion_distance" : ".6396741452705902",
        "perihelion_argument" : "23.61692199702258",
        "aphelion_distance" : "1.185759888202933",
        "perihelion_time" : "2458072.706002076781",
        "mean_anomaly" : "278.3844048313936",
        "mean_motion" : "1.130315940796992",
        "equinox" : "J2000"
      }
    }, {
      "links" : {
        "self" : "https://api.nasa.gov/neo/rest/v1/neo/2484402?api_key=t0TVs3DtDT2H8Oy2Zy8m2eVrNsAVKAexjcZXUckd"
      },
      "neo_reference_id" : "2484402",
      "name" : "484402 (2007 XH16)",
      "nasa_jpl_url" : "http://ssd.jpl.nasa.gov/sbdb.cgi?sstr=2484402",
      "absolute_magnitude_h" : 19.6,
      "estimated_diameter" : {
        "kilometers" : {
          "estimated_diameter_min" : 0.3195618867,
          "estimated_diameter_max" : 0.7145621017
        },
        "meters" : {
          "estimated_diameter_min" : 319.5618867213,
          "estimated_diameter_max" : 714.5621017269
        },
        "miles" : {
          "estimated_diameter_min" : 0.1985664891,
          "estimated_diameter_max" : 0.4440081677
        },
        "feet" : {
          "estimated_diameter_min" : 1048.4314204307,
          "estimated_diameter_max" : 2344.3639258298
        }
      },
      "is_potentially_hazardous_asteroid" : true,
      "close_approach_data" : [ {
        "close_approach_date" : "1995-06-08",
        "epoch_date_close_approach" : 802594800000,
        "relative_velocity" : {
          "kilometers_per_second" : "18.3327075668",
          "kilometers_per_hour" : "65997.7472403997",
          "miles_per_hour" : "41008.433556125"
        },
        "miss_distance" : {
          "astronomical" : "0.3551124243",
          "lunar" : "138.1387329102",
          "kilometers" : "53124064",
          "miles" : "33009764"
        },
        "orbiting_body" : "Earth"
      } ],
      "orbital_data" : {
        "orbit_id" : "72",
        "orbit_determination_date" : "2017-06-28 06:19:14",
        "orbit_uncertainty" : "0",
        "minimum_orbit_intersection" : ".014981",
        "jupiter_tisserand_invariant" : "5.208",
        "epoch_osculation" : "2458000.5",
        "eccentricity" : ".2347705612442139",
        "semi_major_axis" : "1.18707590311588",
        "inclination" : "27.42934756970816",
        "ascending_node_longitude" : "91.29622833768234",
        "orbital_period" : "472.4068220242749",
        "perihelion_distance" : ".9083854271018823",
        "perihelion_argument" : "58.30311252249622",
        "aphelion_distance" : "1.465766379129877",
        "perihelion_time" : "2457814.668317110125",
        "mean_anomaly" : "141.6139706740252",
        "mean_motion" : ".7620550407324583",
        "equinox" : "J2000"
      }
    }, {
      "links" : {
        "self" : "https://api.nasa.gov/neo/rest/v1/neo/3776112?api_key=t0TVs3DtDT2H8Oy2Zy8m2eVrNsAVKAexjcZXUckd"
      },
      "neo_reference_id" : "3776112",
      "name" : "(2017 MD7)",
      "nasa_jpl_url" : "http://ssd.jpl.nasa.gov/sbdb.cgi?sstr=3776112",
      "absolute_magnitude_h" : 20.616,
      "estimated_diameter" : {
        "kilometers" : {
          "estimated_diameter_min" : 0.2001497153,
          "estimated_diameter_max" : 0.447548369
        },
        "meters" : {
          "estimated_diameter_min" : 200.1497152635,
          "estimated_diameter_max" : 447.5483690065
        },
        "miles" : {
          "estimated_diameter_min" : 0.1243672287,
          "estimated_diameter_max" : 0.2780935776
        },
        "feet" : {
          "estimated_diameter_min" : 656.6591918253,
          "estimated_diameter_max" : 1468.3345909714
        }
      },
      "is_potentially_hazardous_asteroid" : false,
      "close_approach_data" : [ {
        "close_approach_date" : "1995-06-08",
        "epoch_date_close_approach" : 802594800000,
        "relative_velocity" : {
          "kilometers_per_second" : "17.4813559273",
          "kilometers_per_hour" : "62932.8813383124",
          "miles_per_hour" : "39104.0450737975"
        },
        "miss_distance" : {
          "astronomical" : "0.3236887064",
          "lunar" : "125.9149093628",
          "kilometers" : "48423144",
          "miles" : "30088746"
        },
        "orbiting_body" : "Earth"
      } ],
      "orbital_data" : {
        "orbit_id" : "5",
        "orbit_determination_date" : "2017-08-14 06:21:35",
        "orbit_uncertainty" : "5",
        "minimum_orbit_intersection" : ".317486",
        "jupiter_tisserand_invariant" : "5.612",
        "epoch_osculation" : "2458000.5",
        "eccentricity" : ".4054789391223797",
        "semi_major_axis" : "1.062613440594973",
        "inclination" : "29.97955176309085",
        "ascending_node_longitude" : "280.3174924693282",
        "orbital_period" : "400.0933971167236",
        "perihelion_distance" : ".6317460700053416",
        "perihelion_argument" : "202.1321893156033",
        "aphelion_distance" : "1.493480811184605",
        "perihelion_time" : "2458183.941818242967",
        "mean_anomaly" : "194.9409036905404",
        "mean_motion" : ".8997899055429133",
        "equinox" : "J2000"
      }
    } ]
  }
}